{"type": "FeatureCollection", "features": [ {"type": "Feature", "properties": {"norad_id": 66506, "name": "STARLINK-34765", "group": "last-30-days", "lat": 17.297359041105214, "lon": -13.622325944488493, "alt_km": 342.4392434501133, "timestamp": "2025-12-02T10:50:46.052716+00:00", "meta": {"OBJECT_NAME": "STARLINK-34765", "OBJECT_ID": "2025-263X", "EPOCH": "2025-12-02T04:00:03.998880", "MEAN_MOTION": 15.74968645, "ECCENTRICITY": 0.0001821, "INCLINATION": 42.9985, "RA_OF_ASC_NODE": 187.6331, "ARG_OF_PERICENTER": 278.1918, "MEAN_ANOMALY": 56.7637, "EPHEMERIS_TYPE": 0, "CLASSIFICATION_TYPE": "U", "NORAD_CAT_ID": 66506, "ELEMENT_SET_NO": 999, "REV_AT_EPOCH": 393, "BSTAR": 0.0010117, "MEAN_MOTION_DOT": 0.00157384, "MEAN_MOTION_DDOT": 0}, "tle": {"line1": "1 66506U 25263X   25336.16671295  .00157384  00000+0  10117-2 0  9996", "line2": "2 66506  42.9985 187.6331 0001821 278.1918  56.7637 15.74968645  3933"}}, "geometry": {"type": "Point", "coordinates": [-13.622325944488493, 17.297359041105214]}}, {"type": "Feature", "properties": {"norad_id": 66507, "name": "STARLINK-34767", "group": "last-30-days", "lat": 14.789376405484953, "lon": -10.567164799642885, "alt_km": 342.75041669754046, "timestamp": "2025-12-02T10:50:46.052742+00:00", "meta": {"OBJECT_NAME": "STARLINK-34767", "OBJECT_ID": "2025-263Y", "EPOCH": "2025-12-02T04:00:03.998880", "MEAN_MOTION": 15.75073399, "ECCENTRICITY": 0.0001738, "INCLINATION": 42.9985, "RA_OF_ASC_NODE": 187.6234, "ARG_OF_PERICENTER": 276.1031, "MEAN_ANOMALY": 62.6723, "EPHEMERIS_TYPE": 0, "CLASSIFICATION_TYPE": "U", "NORAD_CAT_ID": 66507, "ELEMENT_SET_NO": 999, "REV_AT_EPOCH": 393, "BSTAR": -0.00036065, "MEAN_MOTION_DOT": -0.00055597, "MEAN_MOTION_DDOT": 0}, "tle": {"line1": "1 66507U 25263Y   25336.16671295 -.00055597  00000+0 -36065-3 0  9993", "line2": "2 66507  42.9985 187.6234 0001738 276.1031  62.6723 15.75073399  3933"}}, "geometry": {"type": "Point", "coordinates": [-10.567164799642885, 14.789376405484953]}}, {"type": "Feature", "properties": {"norad_id": 66508, "name": "STARLINK-35608", "group": "last-30-days", "lat": 10.99152820513287, "lon": -6.153418830391824, "alt_km": 343.2102453950538, "timestamp": "2025-12-02T10:50:46.052753+00:00", "meta": {"OBJECT_NAME": "STARLINK-35608", "OBJECT_ID": "2025-263Z", "EPOCH": "2025-12-02T04:00:03.998880", "MEAN_MOTION": 15.75060988, "ECCENTRICITY": 0.0001837, "INCLINATION": 42.9985, "RA_OF_ASC_NODE": 187.6087, "ARG_OF_PERICENTER": 272.6235, "MEAN_ANOMALY": 71.9116, "EPHEMERIS_TYPE": 0, "CLASSIFICATION_TYPE": "U", "NORAD_CAT_ID": 66508, "ELEMENT_SET_NO": 999, "REV_AT_EPOCH": 393, "BSTAR": -0.00033673, "MEAN_MOTION_DOT": -0.00051936, "MEAN_MOTION_DDOT": 0}, "tle": {"line1": "1 66508U 25263Z   25336.16671295 -.00051936  00000+0 -33673-3 0  9999", "line2": "2 66508  42.9985 187.6087 0001837 272.6235  71.9116 15.75060988  3936"}}, "geometry": {"type": "Point", "coordinates": [-6.153418830391824, 10.99152820513287]}}, {"type": "Feature", "properties": {"norad_id": 66509, "name": "STARLINK-35598", "group": "last-30-days", "lat": 5.824046285508936, "lon": -0.4266419265121307, "alt_km": 343.7867076388993, "timestamp": "2025-12-02T10:50:46.052763+00:00", "meta": {"OBJECT_NAME": "STARLINK-35598", "OBJECT_ID": "2025-263AA", "EPOCH": "2025-12-02T04:00:03.998880", "MEAN_MOTION": 15.75069655, "ECCENTRICITY": 0.0001651, "INCLINATION": 43.0022, "RA_OF_ASC_NODE": 187.5879, "ARG_OF_PERICENTER": 273.6516, "MEAN_ANOMALY": 78.5548, "EPHEMERIS_TYPE": 0, "CLASSIFICATION_TYPE": "U", "NORAD_CAT_ID": 66509, "ELEMENT_SET_NO": 999, "REV_AT_EPOCH": 393, "BSTAR": -0.00040133, "MEAN_MOTION_DOT": -0.00061759, "MEAN_MOTION_DDOT": 0}, "tle": {"line1": "1 66509U 25263AA  25336.16671295 -.00061759  00000+0 -40133-3 0  9993", "line2": "2 66509  43.0022 187.5879 0001651 273.6516  78.5548 15.75069655  3938"}}, "geometry": {"type": "Point", "coordinates": [-0.4266419265121307, 5.824046285508936]}}, {"type": "Feature", "properties": {"norad_id": 66510, "name": "STARLINK-35600", "group": "last-30-days", "lat": 9.707733726347627, "lon": -4.707102297198554, "alt_km": 343.3070336736628, "timestamp": "2025-12-02T10:50:46.052773+00:00", "meta": {"OBJECT_NAME": "STARLINK-35600", "OBJECT_ID": "2025-263AB", "EPOCH": "2025-12-02T04:00:03.998880", "MEAN_MOTION": 15.75068283, "ECCENTRICITY": 0.0001938, "INCLINATION": 42.9986, "RA_OF_ASC_NODE": 187.603, "ARG_OF_PERICENTER": 271.4956, "MEAN_ANOMALY": 74.9474, "EPHEMERIS_TYPE": 0, "CLASSIFICATION_TYPE": "U", "NORAD_CAT_ID": 66510, "ELEMENT_SET_NO": 999, "REV_AT_EPOCH": 393, "BSTAR": -0.00021137, "MEAN_MOTION_DOT": -0.00032862, "MEAN_MOTION_DDOT": 0}, "tle": {"line1": "1 66510U 25263AB  25336.16671295 -.00032862  00000+0 -21137-3 0  9991", "line2": "2 66510  42.9986 187.6030 0001938 271.4956  74.9474 15.75068283  3933"}}, "geometry": {"type": "Point", "coordinates": [-4.707102297198554, 9.707733726347627]}}, {"type": "Feature", "properties": {"norad_id": 66511, "name": "STARLINK-35444", "group": "last-30-days", "lat": 7.12715006204955, "lon": -1.8493075507649817, "alt_km": 343.597009051201, "timestamp": "2025-12-02T10:50:46.052784+00:00", "meta": {"OBJECT_NAME": "STARLINK-35444", "OBJECT_ID": "2025-263AC", "EPOCH": "2025-12-02T04:00:03.998880", "MEAN_MOTION": 15.75070561, "ECCENTRICITY": 0.0001726, "INCLINATION": 42.9985, "RA_OF_ASC_NODE": 187.5934, "ARG_OF_PERICENTER": 269.7433, "MEAN_ANOMALY": 80.5416, "EPHEMERIS_TYPE": 0, "CLASSIFICATION_TYPE": "U", "NORAD_CAT_ID": 66511, "ELEMENT_SET_NO": 999, "REV_AT_EPOCH": 393, "BSTAR": -0.00050424, "MEAN_MOTION_DOT": -0.00077335, "MEAN_MOTION_DDOT": 0}, "tle": {"line1": "1 66511U 25263AC  25336.16671295 -.00077335  00000+0 -50424-3 0  9997", "line2": "2 66511  42.9985 187.5934 0001726 269.7433  80.5416 15.75070561  3931"}}, "geometry": {"type": "Point", "coordinates": [-1.8493075507649817, 7.12715006204955]}}, {"type": "Feature", "properties": {"norad_id": 66512, "name": "STARLINK-35366", "group": "last-30-days", "lat": 4.527695148802907, "lon": 0.9779165052903008, "alt_km": 343.7079663653549, "timestamp": "2025-12-02T10:50:46.052800+00:00", "meta": {"OBJECT_NAME": "STARLINK-35366", "OBJECT_ID": "2025-263AD", "EPOCH": "2025-12-02T04:00:03.998880", "MEAN_MOTION": 15.75067196, "ECCENTRICITY": 0.0001866, "INCLINATION": 43.0022, "RA_OF_ASC_NODE": 187.5832, "ARG_OF_PERICENTER": 262.6712, "MEAN_ANOMALY": 91.4467, "EPHEMERIS_TYPE": 0, "CLASSIFICATION_TYPE": "U", "NORAD_CAT_ID": 66512, "ELEMENT_SET_NO": 999, "REV_AT_EPOCH": 393, "BSTAR": -0.00031131, "MEAN_MOTION_DOT": -0.00048087, "MEAN_MOTION_DDOT": 0}, "tle": {"line1": "1 66512U 25263AD  25336.16671295 -.00048087  00000+0 -31131-3 0  9994", "line2": "2 66512  43.0022 187.5832 0001866 262.6712  91.4467 15.75067196  3937"}}, "geometry": {"type": "Point", "coordinates": [0.9779165052903008, 4.527695148802907]}}, {"type": "Feature", "properties": {"norad_id": 66513, "name": "STARLINK-35692", "group": "last-30-days", "lat": 8.416711455745713, "lon": -3.269464167071359, "alt_km": 343.7302492725803, "timestamp": "2025-12-02T10:50:46.052815+00:00", "meta": {"OBJECT_NAME": "STARLINK-35692", "OBJECT_ID": "2025-263AE", "EPOCH": "2025-12-02T04:00:03.998880", "MEAN_MOTION": 15.75054792, "ECCENTRICITY": 0.0001813, "INCLINATION": 42.9984, "RA_OF_ASC_NODE": 187.5985, "ARG_OF_PERICENTER": 284.9937, "MEAN_ANOMALY": 63.3806, "EPHEMERIS_TYPE": 0, "CLASSIFICATION_TYPE": "U", "NORAD_CAT_ID": 66513, "ELEMENT_SET_NO": 999, "REV_AT_EPOCH": 393, "BSTAR": -0.00019335, "MEAN_MOTION_DOT": -0.00030093, "MEAN_MOTION_DDOT": 0}, "tle": {"line1": "1 66513U 25263AE  25336.16671295 -.00030093  00000+0 -19335-3 0  9995", "line2": "2 66513  42.9984 187.5985 0001813 284.9937  63.3806 15.75054792  3933"}}, "geometry": {"type": "Point", "coordinates": [-3.269464167071359, 8.416711455745713]}}, {"type": "Feature", "properties": {"norad_id": 66514, "name": "SENTINEL-6B", "group": "last-30-days", "lat": 61.853693750747674, "lon": -119.86700956708772, "alt_km": 1319.6419741999707, "timestamp": "2025-12-02T10:50:46.052825+00:00", "meta": {"OBJECT_NAME": "SENTINEL-6B", "OBJECT_ID": "2025-264A", "EPOCH": "2025-12-02T01:07:30.457056", "MEAN_MOTION": 12.85877319, "ECCENTRICITY": 0.0011528, "INCLINATION": 66.0388, "RA_OF_ASC_NODE": 184.7629, "ARG_OF_PERICENTER": 268.8495, "MEAN_ANOMALY": 91.1202, "EPHEMERIS_TYPE": 0, "CLASSIFICATION_TYPE": "U", "NORAD_CAT_ID": 66514, "ELEMENT_SET_NO": 999, "REV_AT_EPOCH": 191, "BSTAR": 0.00032638, "MEAN_MOTION_DOT": 1.9e-07, "MEAN_MOTION_DDOT": 0}, "tle": {"line1": "1 66514U 25264A   25336.04688029  .00000019  00000+0  32638-3 0  9991", "line2": "2 66514  66.0388 184.7629 0011528 268.8495  91.1202 12.85877319  1918"}}, "geometry": {"type": "Point", "coordinates": [-119.86700956708772, 61.853693750747674]}}, {"type": "Feature", "properties": {"norad_id": 66516, "name": "STARLINK-35924", "group": "last-30-days", "lat": -7.044649948316943, "lon": -57.18779728797858, "alt_km": 344.96072615930643, "timestamp": "2025-12-02T10:50:46.052835+00:00", "meta": {"OBJECT_NAME": "STARLINK-35924", "OBJECT_ID": "2025-265A", "EPOCH": "2025-12-02T04:00:03.998880", "MEAN_MOTION": 15.75025676, "ECCENTRICITY": 0.0001518, "INCLINATION": 42.9996, "RA_OF_ASC_NODE": 116.9221, "ARG_OF_PERICENTER": 269.0714, "MEAN_ANOMALY": 102.0697, "EPHEMERIS_TYPE": 0, "CLASSIFICATION_TYPE": "U", "NORAD_CAT_ID": 66516, "ELEMENT_SET_NO": 999, "REV_AT_EPOCH": 327, "BSTAR": 0.00029145, "MEAN_MOTION_DOT": 0.00044502, "MEAN_MOTION_DDOT": 0}, "tle": {"line1": "1 66516U 25265A   25336.16671295  .00044502  00000+0  29145-3 0  9998", "line2": "2 66516  42.9996 116.9221 0001518 269.0714 102.0697 15.75025676  3272"}}, "geometry": {"type": "Point", "coordinates": [-57.18779728797858, -7.044649948316943]}}]}